{"type": "FeatureCollection", "features": [ {"type": "Feature", "properties": {"norad_id": 35701, "name": "COSMOS 2251 DEB", "group": "cosmos-2251-debris", "lat": -73.74919028973146, "lon": -135.1062593373437, "alt_km": 1064.3563207898023, "timestamp": "2025-12-11T08:58:27.521910+00:00", "meta": {"OBJECT_NAME": "COSMOS 2251 DEB", "OBJECT_ID": "1993-036APW", "EPOCH": "2025-12-06T05:57:57.623904", "MEAN_MOTION": 13.80843435, "ECCENTRICITY": 0.02897209, "INCLINATION": 74.0028, "RA_OF_ASC_NODE": 313.2955, "ARG_OF_PERICENTER": 164.0681, "MEAN_ANOMALY": 196.98, "EPHEMERIS_TYPE": 0, "CLASSIFICATION_TYPE": "U", "NORAD_CAT_ID": 35701, "ELEMENT_SET_NO": 999, "REV_AT_EPOCH": 62069, "BSTAR": 0.0021223911, "MEAN_MOTION_DOT": 3.05e-05, "MEAN_MOTION_DDOT": 0}, "tle": {"line1": "1 35701U 93036APW 25340.24858361  .00003050  00000+0  21224-2 0  9998", "line2": "2 35701  74.0028 313.2955 0289720 164.0681 196.9800 13.80843435620696"}}, "geometry": {"type": "Point", "coordinates": [-135.1062593373437, -73.74919028973146]}}, {"type": "Feature", "properties": {"norad_id": 35703, "name": "COSMOS 2251 DEB", "group": "cosmos-2251-debris", "lat": 64.69981118802664, "lon": -171.75236029393588, "alt_km": 545.2927627129293, "timestamp": "2025-12-11T08:58:27.521920+00:00", "meta": {"OBJECT_NAME": "COSMOS 2251 DEB", "OBJECT_ID": "1993-036APY", "EPOCH": "2025-12-08T11:12:28.770624", "MEAN_MOTION": 14.90258753, "ECCENTRICITY": 0.00649106, "INCLINATION": 74.042, "RA_OF_ASC_NODE": 51.3159, "ARG_OF_PERICENTER": 122.6243, "MEAN_ANOMALY": 238.1226, "EPHEMERIS_TYPE": 0, "CLASSIFICATION_TYPE": "U", "NORAD_CAT_ID": 35703, "ELEMENT_SET_NO": 999, "REV_AT_EPOCH": 66552, "BSTAR": 0.00096315421, "MEAN_MOTION_DOT": 9.705e-05, "MEAN_MOTION_DDOT": 0}, "tle": {"line1": "1 35703U 93036APY 25342.46699966  .00009705  00000+0  96315-3 0  9997", "line2": "2 35703  74.0420  51.3159 0064910 122.6243 238.1226 14.90258753665523"}}, "geometry": {"type": "Point", "coordinates": [-171.75236029393588, 64.69981118802664]}}, {"type": "Feature", "properties": {"norad_id": 35705, "name": "COSMOS 2251 DEB", "group": "cosmos-2251-debris", "lat": -19.364071512126678, "lon": 132.75651005855568, "alt_km": 668.0880823439638, "timestamp": "2025-12-11T08:58:27.521930+00:00", "meta": {"OBJECT_NAME": "COSMOS 2251 DEB", "OBJECT_ID": "1993-036AQA", "EPOCH": "2025-12-03T05:18:59.084352", "MEAN_MOTION": 14.71707631, "ECCENTRICITY": 0.0034156, "INCLINATION": 74.2742, "RA_OF_ASC_NODE": 154.0557, "ARG_OF_PERICENTER": 110.0272, "MEAN_ANOMALY": 250.4584, "EPHEMERIS_TYPE": 0, "CLASSIFICATION_TYPE": "U", "NORAD_CAT_ID": 35705, "ELEMENT_SET_NO": 999, "REV_AT_EPOCH": 85786, "BSTAR": 0.0035867, "MEAN_MOTION_DOT": 0.00022615, "MEAN_MOTION_DDOT": 0}, "tle": {"line1": "1 35705U 93036AQA 25337.22151718  .00022615  00000+0  35867-2 0  9994", "line2": "2 35705  74.2742 154.0557 0034156 110.0272 250.4584 14.71707631857866"}}, "geometry": {"type": "Point", "coordinates": [132.75651005855568, -19.364071512126678]}}, {"type": "Feature", "properties": {"norad_id": 35706, "name": "COSMOS 2251 DEB", "group": "cosmos-2251-debris", "lat": 38.110962110428, "lon": 78.16835551533096, "alt_km": 938.1986662239906, "timestamp": "2025-12-11T08:58:27.521940+00:00", "meta": {"OBJECT_NAME": "COSMOS 2251 DEB", "OBJECT_ID": "1993-036AQB", "EPOCH": "2025-12-10T13:26:36.115008", "MEAN_MOTION": 13.65916691, "ECCENTRICITY": 0.0340886, "INCLINATION": 73.8891, "RA_OF_ASC_NODE": 66.409, "ARG_OF_PERICENTER": 116.6304, "MEAN_ANOMALY": 247.0156, "EPHEMERIS_TYPE": 0, "CLASSIFICATION_TYPE": "U", "NORAD_CAT_ID": 35706, "ELEMENT_SET_NO": 999, "REV_AT_EPOCH": 62032, "BSTAR": 0.0013852, "MEAN_MOTION_DOT": 1.675e-05, "MEAN_MOTION_DDOT": 0}, "tle": {"line1": "1 35706U 93036AQB 25344.56014022  .00001675  00000+0  13852-2 0  9999", "line2": "2 35706  73.8891  66.4090 0340886 116.6304 247.0156 13.65916691620329"}}, "geometry": {"type": "Point", "coordinates": [78.16835551533096, 38.110962110428]}}, {"type": "Feature", "properties": {"norad_id": 35711, "name": "COSMOS 2251 DEB", "group": "cosmos-2251-debris", "lat": -2.6627414808772687, "lon": -137.67843455943645, "alt_km": 633.2388612297118, "timestamp": "2025-12-11T08:58:27.521951+00:00", "meta": {"OBJECT_NAME": "COSMOS 2251 DEB", "OBJECT_ID": "1993-036AQG", "EPOCH": "2025-12-10T23:08:43.048032", "MEAN_MOTION": 14.63792974, "ECCENTRICITY": 0.0085386, "INCLINATION": 74.0508, "RA_OF_ASC_NODE": 223.8689, "ARG_OF_PERICENTER": 325.2141, "MEAN_ANOMALY": 34.3461, "EPHEMERIS_TYPE": 0, "CLASSIFICATION_TYPE": "U", "NORAD_CAT_ID": 35711, "ELEMENT_SET_NO": 999, "REV_AT_EPOCH": 87745, "BSTAR": 0.00036043, "MEAN_MOTION_DOT": 1.949e-05, "MEAN_MOTION_DDOT": 0}, "tle": {"line1": "1 35711U 93036AQG 25344.96438713  .00001949  00000+0  36043-3 0  9998", "line2": "2 35711  74.0508 223.8689 0085386 325.2141  34.3461 14.63792974877453"}}, "geometry": {"type": "Point", "coordinates": [-137.67843455943645, -2.6627414808772687]}}, {"type": "Feature", "properties": {"norad_id": 35716, "name": "COSMOS 2251 DEB", "group": "cosmos-2251-debris", "lat": 73.10019920077949, "lon": -54.07436631835593, "alt_km": 651.3047368964544, "timestamp": "2025-12-11T08:58:27.521961+00:00", "meta": {"OBJECT_NAME": "COSMOS 2251 DEB", "OBJECT_ID": "1993-036AQM", "EPOCH": "2025-12-10T22:58:34.278816", "MEAN_MOTION": 14.60083428, "ECCENTRICITY": 0.0088633, "INCLINATION": 73.9924, "RA_OF_ASC_NODE": 197.6138, "ARG_OF_PERICENTER": 39.0207, "MEAN_ANOMALY": 26.7611, "EPHEMERIS_TYPE": 0, "CLASSIFICATION_TYPE": "U", "NORAD_CAT_ID": 35716, "ELEMENT_SET_NO": 999, "REV_AT_EPOCH": 87601, "BSTAR": 0.00015815, "MEAN_MOTION_DOT": 7.71e-06, "MEAN_MOTION_DDOT": 0}, "tle": {"line1": "1 35716U 93036AQM 25344.95734119  .00000771  00000+0  15815-3 0  9997", "line2": "2 35716  73.9924 197.6138 0088633  39.0207  26.7611 14.60083428876013"}}, "geometry": {"type": "Point", "coordinates": [-54.07436631835593, 73.10019920077949]}}, {"type": "Feature", "properties": {"norad_id": 35717, "name": "COSMOS 2251 DEB", "group": "cosmos-2251-debris", "lat": -29.705345905990452, "lon": -149.32525105301974, "alt_km": 788.3393390454858, "timestamp": "2025-12-11T08:58:27.521971+00:00", "meta": {"OBJECT_NAME": "COSMOS 2251 DEB", "OBJECT_ID": "1993-036AQN", "EPOCH": "2025-12-08T11:00:53.829504", "MEAN_MOTION": 14.38444389, "ECCENTRICITY": 0.00767393, "INCLINATION": 74.16, "RA_OF_ASC_NODE": 225.3267, "ARG_OF_PERICENTER": 86.192, "MEAN_ANOMALY": 274.8004, "EPHEMERIS_TYPE": 0, "CLASSIFICATION_TYPE": "U", "NORAD_CAT_ID": 35717, "ELEMENT_SET_NO": 999, "REV_AT_EPOCH": 74038, "BSTAR": 0.0017775827, "MEAN_MOTION_DOT": 5.593e-05, "MEAN_MOTION_DDOT": 0}, "tle": {"line1": "1 35717U 93036AQN 25342.45895636  .00005593  00000+0  17776-2 0  9997", "line2": "2 35717  74.1600 225.3267 0076739  86.1920 274.8004 14.38444389740383"}}, "geometry": {"type": "Point", "coordinates": [-149.32525105301974, -29.705345905990452]}}, {"type": "Feature", "properties": {"norad_id": 35718, "name": "COSMOS 2251 DEB", "group": "cosmos-2251-debris", "lat": -68.05602473400775, "lon": 87.32439333529354, "alt_km": 674.3754542439847, "timestamp": "2025-12-11T08:58:27.521981+00:00", "meta": {"OBJECT_NAME": "COSMOS 2251 DEB", "OBJECT_ID": "1993-036AQP", "EPOCH": "2025-12-09T16:26:31.942752", "MEAN_MOTION": 14.68563709, "ECCENTRICITY": 0.00112598, "INCLINATION": 74.0322, "RA_OF_ASC_NODE": 135.8815, "ARG_OF_PERICENTER": 184.534, "MEAN_ANOMALY": 175.573, "EPHEMERIS_TYPE": 0, "CLASSIFICATION_TYPE": "U", "NORAD_CAT_ID": 35718, "ELEMENT_SET_NO": 999, "REV_AT_EPOCH": 65795, "BSTAR": 0.0024435222, "MEAN_MOTION_DOT": 0.00014198, "MEAN_MOTION_DDOT": 0}, "tle": {"line1": "1 35718U 93036AQP 25343.68509193  .00014198  00000+0  24435-2 0  9995", "line2": "2 35718  74.0322 135.8815 0011259 184.5340 175.5730 14.68563709657957"}}, "geometry": {"type": "Point", "coordinates": [87.32439333529354, -68.05602473400775]}}, {"type": "Feature", "properties": {"norad_id": 35721, "name": "COSMOS 2251 DEB", "group": "cosmos-2251-debris", "lat": 59.99626428519097, "lon": -29.65168991730845, "alt_km": 860.2918964737955, "timestamp": "2025-12-11T08:58:27.521995+00:00", "meta": {"OBJECT_NAME": "COSMOS 2251 DEB", "OBJECT_ID": "1993-036AQS", "EPOCH": "2025-12-09T19:36:39.465216", "MEAN_MOTION": 14.34317214, "ECCENTRICITY": 0.01465875, "INCLINATION": 73.9489, "RA_OF_ASC_NODE": 183.1196, "ARG_OF_PERICENTER": 330.1589, "MEAN_ANOMALY": 29.126, "EPHEMERIS_TYPE": 0, "CLASSIFICATION_TYPE": "U", "NORAD_CAT_ID": 35721, "ELEMENT_SET_NO": 999, "REV_AT_EPOCH": 57747, "BSTAR": 0.0018396061, "MEAN_MOTION_DOT": 5.808e-05, "MEAN_MOTION_DDOT": 0}, "tle": {"line1": "1 35721U 93036AQS 25343.81712344  .00005808  00000+0  18396-2 0  9995", "line2": "2 35721  73.9489 183.1196 0146587 330.1589  29.1260 14.34317214577479"}}, "geometry": {"type": "Point", "coordinates": [-29.65168991730845, 59.99626428519097]}}, {"type": "Feature", "properties": {"norad_id": 35724, "name": "COSMOS 2251 DEB", "group": "cosmos-2251-debris", "lat": -56.919819611505496, "lon": -80.79606560627872, "alt_km": 744.9072235119083, "timestamp": "2025-12-11T08:58:27.522005+00:00", "meta": {"OBJECT_NAME": "COSMOS 2251 DEB", "OBJECT_ID": "1993-036AQV", "EPOCH": "2025-12-10T15:08:30.643872", "MEAN_MOTION": 14.58189863, "ECCENTRICITY": 0.00589356, "INCLINATION": 74.0322, "RA_OF_ASC_NODE": 306.693, "ARG_OF_PERICENTER": 100.994, "MEAN_ANOMALY": 259.7862, "EPHEMERIS_TYPE": 0, "CLASSIFICATION_TYPE": "U", "NORAD_CAT_ID": 35724, "ELEMENT_SET_NO": 999, "REV_AT_EPOCH": 87498, "BSTAR": 0.00041915944, "MEAN_MOTION_DOT": 1.951e-05, "MEAN_MOTION_DDOT": 0}, "tle": {"line1": "1 35724U 93036AQV 25344.63091023  .00001951  00000+0  41916-3 0  9993", "line2": "2 35724  74.0322 306.6930 0058935 100.9940 259.7862 14.58189863874989"}}, "geometry": {"type": "Point", "coordinates": [-80.79606560627872, -56.919819611505496]}}]}